OBJECT_NAME,OBJECT_ID,EPOCH,MEAN_MOTION,ECCENTRICITY,INCLINATION,RA_OF_ASC_NODE,ARG_OF_PERICENTER,MEAN_ANOMALY,EPHEMERIS_TYPE,CLASSIFICATION_TYPE,NORAD_CAT_ID,ELEMENT_SET_NO,REV_AT_EPOCH,BSTAR,MEAN_MOTION_DOT,MEAN_MOTION_DDOT
QZS-6 (MICHIBIKI-6),2025-023A,2026-07-18T15:57:22.949280,1.00274663,.00018744,0.0110,35.9965,78.6808,151.5894,0,U,62876,999,526,0,-.24E-5,0
ZHONGXING-10R,2025-036A,2026-07-18T15:24:25.252416,1.00270784,.00043196,0.0269,174.3296,332.3559,131.3749,0,U,63075,999,527,0,-.359E-5,0
TJS-15,2025-045A,2026-07-18T19:29:25.725120,1.00272854,.0003083,0.3094,85.6905,294.8019,302.8663,0,U,63157,999,507,0,-.272E-5,0
TIANLIAN 2-04,2025-062A,2026-07-18T13:36:17.638848,1.00272552,.0031428,4.2952,273.9882,9.3958,297.0811,0,U,63361,999,491,0,-.141E-5,0
TJS-16,2025-064A,2026-07-18T17:24:34.307712,1.00271244,.0002454,1.1777,81.2665,294.7569,342.2525,0,U,63397,999,470,0,-.112E-5,0
TJS-17,2025-073A,2026-07-18T19:48:12.890016,1.00271316,.0001008,1.1440,82.4266,314.2292,1.5118,0,U,63524,999,460,0,-.77E-6,0
TIANLIAN 2-05,2025-084A,2026-07-18T08:11:21.770880,1.00272666,.00026555,4.3732,279.4811,156.7671,3.0989,0,U,63662,999,469,0,.118E-5,0
TJS-19,2025-097A,2026-07-18T19:42:30.026304,1.00274857,.000411,3.2341,317.9697,251.3720,164.1101,0,U,63924,999,446,0,-.281E-5,0
CHINASAT 3B,2025-106A,2026-07-17T14:37:38.518176,1.00271935,.00040829,0.0292,170.4389,335.6786,176.0262,0,U,64062,999,436,0,-.54E-6,0
SXM-10,2025-122A,2026-07-18T07:32:25.502784,1.00271459,.00018051,0.0186,47.7629,315.0122,290.2794,0,U,64290,999,399,0,-.25E-6,0
COSMOS 2589,2025-131A,2026-07-18T19:39:31.426272,1.00268636,.0001222,0.0238,120.2702,64.5231,144.7079,0,U,64467,999,387,0,-.297E-5,0
CHINASAT 9C,2025-132A,2026-07-18T15:33:39.983616,1.00273488,.0003426,0.0146,90.6650,25.0210,146.3646,0,U,64470,999,446,0,-.254E-5,0
MTG-S1,2025-143A,2026-07-18T08:05:29.832576,1.00274495,.00033282,0.5826,345.8734,259.5296,171.7337,0,U,64723,999,373,0,-.15E-6,0
DROR 1,2025-148A,2026-07-18T08:04:22.440576,1.00272691,.00020078,0.0426,239.8779,160.4139,12.9474,0,U,64784,999,360,0,-.42E-6,0
SHIYAN-29,2025-196A,2026-07-17T23:08:38.701248,1.00275892,.00131541,28.8546,18.1469,177.5801,182.5349,0,U,65486,999,318,0,-.287E-5,0
NUSANTARA LIMA (NUSANTARA 5),2025-205A,2026-07-18T03:27:38.745216,1.00271133,.00004154,0.0142,96.0397,69.3252,295.3574,0,U,65588,999,303,0,0,0
TJS-20,2025-238A,2026-07-18T10:06:00.403200,1.00267687,.0003765,5.4000,299.4313,186.6655,24.0857,0,U,66142,999,264,0,.2E-6,0
CMS-03 (GSAT-7R),2025-249B,2026-07-18T13:34:40.295424,1.00269712,.0002411,0.0143,57.6960,60.0210,96.3178,0,U,66311,999,266,0,0,0
VIASAT-3 F2,2025-261A,2026-07-18T06:00:26.580960,1.00272057,.00005696,0.0351,206.6519,6.7692,93.7744,0,U,66454,999,310,0,-.242E-5,0
SHIJIAN-28 (SJ-28),2025-277A,2026-07-18T13:46:49.156320,1.00275257,.00012372,4.4582,271.6332,54.3110,293.9413,0,U,66549,999,246,0,-.366E-5,0
TJS-22,2025-290A,2026-07-12T19:22:52.255200,1.00269739,.0002691,1.4677,286.9097,318.9700,42.0235,0,U,66990,999,228,0,-.5E-7,0
TJS-23,2025-306A,2026-07-18T12:22:26.653728,1.00268121,.00043965,5.5184,297.3214,198.9022,161.2643,0,U,67226,999,220,0,.11E-6,0
FENGYUN 4C,2025-312A,2026-07-13T15:48:28.031328,1.00269440,.00006584,0.0385,175.3203,48.7481,77.5697,0,U,67246,999,204,0,-.328E-5,0
SHIJIAN-29A (SJ-29A),2025-315A,2026-07-18T19:11:33.457056,1.00272987,.0004975,3.4765,94.3495,50.9719,152.3378,0,U,67302,999,193,0,-.76E-6,0
SHIJIAN-29B (SJ-29B),2025-315C,2026-07-18T18:59:51.966816,1.00273256,.0005163,3.4754,94.3427,54.1297,146.3071,0,U,67403,999,200,0,-.76E-6,0
ELEKTRO-L 5,2026-028A,2026-07-17T23:12:29.470464,1.00271857,.00020771,0.2040,326.3173,176.0737,217.6039,0,U,67756,999,155,0,-.106E-5,0
JAM-E JAM 1,2026-028B,2026-07-17T16:51:27.937152,1.00275419,.00015828,0.2016,314.2078,318.7938,309.4336,0,U,67757,999,142,0,.147E-5,0
ECHOSTAR 25,2026-045A,2026-07-18T11:10:38.716896,1.00271181,.00017412,0.0187,56.8044,54.4422,242.6708,0,U,68126,999,130,0,-.64E-6,0
TJS-24,2026-116A,2026-07-18T19:04:35.605056,1.00273838,.0000336,0.0865,94.3316,152.6165,66.0786,0,U,69235,999,54,0,-.238E-5,0
