QZS-6 (MICHIBIKI-6)     
1 62876U 25023A   26199.66484895 -.00000240  00000+0  00000+0 0  9993
2 62876   0.0110  35.9965 0001874  78.6808 151.5894  1.00274663  5262
ZHONGXING-10R           
1 63075U 25036A   26199.64195894 -.00000359  00000+0  00000+0 0  9996
2 63075   0.0269 174.3296 0004319 332.3559 131.3749  1.00270784  5270
TJS-15                  
1 63157U 25045A   26199.81210330 -.00000272  00000+0  00000+0 0  9993
2 63157   0.3094  85.6905 0003083 294.8019 302.8663  1.00272854  5079
TIANLIAN 2-04           
1 63361U 25062A   26199.56687082 -.00000141  00000+0  00000+0 0  9998
2 63361   4.2952 273.9882 0031428   9.3958 297.0811  1.00272552  4910
TJS-16                  
1 63397U 25064A   26199.72539708 -.00000112  00000+0  00000+0 0  9996
2 63397   1.1777  81.2665 0002454 294.7569 342.2525  1.00271244  4703
TJS-17                  
1 63524U 25073A   26199.82514919 -.00000077  00000+0  00000+0 0  9996
2 63524   1.1440  82.4266 0001008 314.2292   1.5118  1.00271316  4609
TIANLIAN 2-05           
1 63662U 25084A   26199.34122420  .00000118  00000+0  00000+0 0  9995
2 63662   4.3732 279.4811 0002655 156.7671   3.0989  1.00272666  4695
TJS-19                  
1 63924U 25097A   26199.82118086 -.00000281  00000+0  00000+0 0  9998
2 63924   3.2341 317.9697 0004110 251.3720 164.1101  1.00274857  4469
CHINASAT 3B             
1 64062U 25106A   26198.60947359 -.00000054  00000+0  00000+0 0  9999
2 64062   0.0292 170.4389 0004082 335.6786 176.0262  1.00271935  4362
SXM-10                  
1 64290U 25122A   26199.31418406 -.00000025  00000+0  00000+0 0  9993
2 64290   0.0186  47.7629 0001805 315.0122 290.2794  1.00271459  3994
COSMOS 2589             
1 64467U 25131A   26199.81911373 -.00000297  00000+0  00000+0 0  9996
2 64467   0.0238 120.2702 0001222  64.5231 144.7079  1.00268636  3876
CHINASAT 9C             
1 64470U 25132A   26199.64837944 -.00000254  00000+0  00000+0 0  9996
2 64470   0.0146  90.6650 0003426  25.0210 146.3646  1.00273488  4462
MTG-S1                  
1 64723U 25143A   26199.33715084 -.00000015  00000+0  00000+0 0  9990
2 64723   0.5826 345.8734 0003328 259.5296 171.7337  1.00274495  3737
DROR 1                  
1 64784U 25148A   26199.33637084 -.00000042  00000+0  00000+0 0  9995
2 64784   0.0426 239.8779 0002007 160.4139  12.9474  1.00272691  3605
SHIYAN-29               
1 65486U 25196A   26198.96433682 -.00000287  00000+0  00000+0 0  9995
2 65486  28.8546  18.1469 0013154 177.5801 182.5349  1.00275892  3184
NUSANTARA LIMA (NUSANT*)
1 65588U 25205A   26199.14419844  .00000000  00000+0  00000+0 0  9996
2 65588   0.0142  96.0397 0000415  69.3252 295.3574  1.00271133  3031
TJS-20                  
1 66142U 25238A   26199.42083800  .00000020  00000+0  00000+0 0  9991
2 66142   5.4000 299.4313 0003765 186.6655  24.0857  1.00267687  2644
CMS-03 (GSAT-7R)        
1 66311U 25249B   26199.56574416  .00000000  00000+0  00000+0 0  9992
2 66311   0.0143  57.6960 0002411  60.0210  96.3178  1.00269712  2663
VIASAT-3 F2             
1 66454U 25261A   26199.25030765 -.00000242  00000+0  00000+0 0  9993
2 66454   0.0351 206.6519 0000569   6.7692  93.7744  1.00272057  3107
SHIJIAN-28 (SJ-28)      
1 66549U 25277A   26199.57418005 -.00000366  00000+0  00000+0 0  9994
2 66549   4.4582 271.6332 0001237  54.3110 293.9413  1.00275257  2468
TJS-22                  
1 66990U 25290A   26193.80754925 -.00000005  00000+0  00000+0 0  9993
2 66990   1.4677 286.9097 0002691 318.9700  42.0235  1.00269739  2289
TJS-23                  
1 67226U 25306A   26199.51558627  .00000011  00000+0  00000+0 0  9995
2 67226   5.5184 297.3214 0004396 198.9022 161.2643  1.00268121  2207
FENGYUN 4C              
1 67246U 25312A   26194.65865777 -.00000328  00000+0  00000+0 0  9993
2 67246   0.0385 175.3203 0000658  48.7481  77.5697  1.00269440  2048
SHIJIAN-29A (SJ-29A)    
1 67302U 25315A   26199.79969279 -.00000076  00000+0  00000+0 0  9991
2 67302   3.4765  94.3495 0004975  50.9719 152.3378  1.00272987  1933
SHIJIAN-29B (SJ-29B)    
1 67403U 25315C   26199.79157369 -.00000076  00000+0  00000+0 0  9992
2 67403   3.4754  94.3427 0005163  54.1297 146.3071  1.00273256  2007
ELEKTRO-L 5             
1 67756U 26028A   26198.96700776 -.00000106  00000+0  00000+0 0  9993
2 67756   0.2040 326.3173 0002077 176.0737 217.6039  1.00271857  1551
JAM-E JAM 1             
1 67757U 26028B   26198.70240668  .00000147  00000+0  00000+0 0  9999
2 67757   0.2016 314.2078 0001582 318.7938 309.4336  1.00275419  1427
ECHOSTAR 25             
1 68126U 26045A   26199.46572589 -.00000064  00000+0  00000+0 0  9992
2 68126   0.0187  56.8044 0001741  54.4422 242.6708  1.00271181  1306
TJS-24                  
1 69235U 26116A   26199.79485654 -.00000238  00000+0  00000+0 0  9998
2 69235   0.0865  94.3316 0000336 152.6165  66.0786  1.00273838   544
